O3B FM5                 
1 39188U 13031A   22264.62455168 -.00000026  00000+0  00000+0 0  9997
2 39188   0.0619  18.1273 0002607 166.1756 175.6974  5.00115347168770
O3B FM4                 
1 39189U 13031B   22264.88046409 -.00000025  00000+0  00000+0 0  9999
2 39189   0.0528 351.5356 0002562 192.5896 175.8753  5.00115892168899
O3B FM2                 
1 39190U 13031C   22264.77197653 -.00000025  00000+0  00000+0 0  9997
2 39190   0.0536 346.1627 0002585 196.7352 177.1031  5.00116921168842
O3B PFM                 
1 39191U 13031D   22264.59839717 -.00000026  00000+0  00000+0 0  9993
2 39191   0.0563  11.2184 0002645 169.6462 179.1374  5.00115735168405
O3B FM3                 
1 40079U 14038A   22264.85306057 -.00000025  00000+0  00000+0 0  9992
2 40079   0.0546 359.5808 0004901 168.4408 191.9926  5.00115370144783
O3B FM7                 
1 40080U 14038B   22264.79913161 -.00000025  00000+0  00000+0 0  9997
2 40080   0.0573 355.9379 0001670 230.4779 133.5729  5.00115507149611
O3B FM6                 
1 40081U 14038C   22264.62561863 -.00000026  00000+0  00000+0 0  9999
2 40081   0.0537 359.0152 0002699 183.3965 177.5895  5.00115395149562
O3B FM8                 
1 40082U 14038D   22264.67954269 -.00000025  00000+0  00000+0 0  9990
2 40082   0.0521 355.9610 0002638 182.6334 181.4090  5.00115735149676
O3B FM10                
1 40348U 14083A   22264.70560361 -.00000025  00000+0  00000+0 0  9995
2 40348   0.0518   8.5625 0002627 172.4255 179.0141  5.00115194141638
O3B FM11                
1 40349U 14083B   22264.71905685 -.00000025  00000+0  00000+0 0  9999
2 40349   0.0565   7.9041 0002502 189.1522 162.9379  5.00115432141651
O3B FM12                
1 40350U 14083C   22263.14714121 -.00000028  00000+0  00000+0 0  9993
2 40350   0.0558   7.2668 0002748 175.2797 177.4543  5.00115298141581
O3B FM9                 
1 40351U 14083D   22264.77315178 -.00000025  00000+0  00000+0 0  9990
2 40351   0.0577   8.0373 0002597 174.8535 177.1102  5.00116188141804
DIAMOND RED             
1 42783U 17036U   22264.05461245  .00008765  00000+0  31475-3 0  9992
2 42783  97.1921 301.6047 0009757   0.9122 359.2135 15.28849891291542
DIAMOND GREEN           
1 42785U 17036W   22264.90616227  .00008662  00000+0  31106-3 0  9997
2 42785  97.1923 302.4910 0009480 359.5091   0.6139 15.28854744291662
DIAMOND BLUE            
1 42786U 17036X   22265.36338081  .00007766  00000+0  27920-3 0  9991
2 42786  97.1921 302.9251 0009499 358.2752   1.8454 15.28855573291736
LEO VANTAGE 1           
1 43113U 18004C   22264.48569606  .00001772  00000+0  14912-3 0  9991
2 43113  99.2437 354.7725 0399568 262.7734  92.7886 14.54127692238196
O3B FM15                
1 43231U 18024A   22264.83908930 -.00000025  00000+0  00000+0 0  9990
2 43231   0.0485   9.5653 0002920 174.1113 176.3238  5.00116060 82774
O3B FM16                
1 43232U 18024B   22264.69258899 -.00000025  00000+0  00000+0 0  9997
2 43232   0.0449  12.2173 0002897 171.7784 176.0045  5.00115933 82684
O3B FM14                
1 43233U 18024C   22265.33190322 -.00000024  00000+0  00000+0 0  9995
2 43233   0.0434  12.4809 0002747 174.4971 173.0210  5.00115310 82959
O3B FM13                
1 43234U 18024D   22264.78574278 -.00000025  00000+0  00000+0 0  9991
2 43234   0.0587  30.3348 0003700 159.2365 170.4243  5.00115147 82803
O3B FM20                
1 44112U 19020A   22264.35915904 -.00000026  00000+0  00000+0 0  9993
2 44112   0.0515   7.8887 0003062 181.9977 170.1100  5.00115489 63299
O3B FM19                
1 44113U 19020B   22264.78574377 -.00000025  00000+0  00000+0 0  9995
2 44113   0.0702  21.5189 0001577 181.1291 157.3477  5.00115163 63176
O3B FM17                
1 44114U 19020C   22264.66635813 -.00000025  00000+0  00000+0 0  9996
2 44114   0.0369 350.4596 0003045 193.3389 176.2017  5.00115587 63256
O3B FM18                
1 44115U 19020D   22264.81276524 -.00000025  00000+0  00000+0 0  9994
2 44115   0.0518   8.1250 0002874 172.3648 179.5125  5.00115835 63387
SALSAT                  
1 46495U 20068K   22264.58951525  .00003178  00000+0  22866-3 0  9995
2 46495  97.7345 205.9653 0015370 315.7733  44.2263 15.04873340108645
